[{"OBJECT_NAME":"STARLINK-2188","OBJECT_ID":"2021-041L","EPOCH":"2026-03-09T12:51:46.393632","MEAN_MOTION":15.30194145,"ECCENTRICITY":0.00016469,"INCLINATION":53.1608,"RA_OF_ASC_NODE":127.4161,"ARG_OF_PERICENTER":91.3833,"MEAN_ANOMALY":268.7357,"EPHEMERIS_TYPE":0,"CLASSIFICATION_TYPE":"U","NORAD_CAT_ID":48563,"ELEMENT_SET_NO":999,"REV_AT_EPOCH":26525,"BSTAR":-7.385512e-6,"MEAN_MOTION_DOT":-5.78e-6,"MEAN_MOTION_DDOT":0},{"OBJECT_NAME":"SITRO-AIS 8 (ANOKHIN)","OBJECT_ID":"2023-091AD","EPOCH":"2026-03-09T23:44:40.058592","MEAN_MOTION":15.29359179,"ECCENTRICITY":0.0012509,"INCLINATION":97.5169,"RA_OF_ASC_NODE":133.2823,"ARG_OF_PERICENTER":92.0171,"MEAN_ANOMALY":268.2501,"EPHEMERIS_TYPE":0,"CLASSIFICATION_TYPE":"U","NORAD_CAT_ID":57193,"ELEMENT_SET_NO":999,"REV_AT_EPOCH":14927,"BSTAR":0.00064982524,"MEAN_MOTION_DOT":0.00018494,"MEAN_MOTION_DDOT":0}]
